COSMOS 2361 [-]         
1 25590U 98076A   15120.11479601  .00000075  00000-0  64857-4 0  9995
2 25590  82.9337 331.7449 0030308 248.9642 262.4566 13.72884825819035
COSMOS 2378 [-]         
1 26818U 01023A   15120.59429401  .00000059  00000-0  46878-4 0  9995
2 26818  82.9291 354.2355 0032098 203.8244 156.1439 13.73877483696629
COSMOS 2389 [-]         
1 27436U 02026A   15120.13560829  .00000066  00000-0  52622-4 0  9998
2 27436  82.9481 297.5415 0047783  84.5576  52.1242 13.74876144648417
COSMOS 2398 [-]         
1 27818U 03023A   15119.95440268  .00000111  00000-0  10446-3 0  9990
2 27818  82.9467 250.8363 0032881  85.9980 274.4928 13.72105128596075
COSMOS 2407 [+]         
1 28380U 04028A   15120.44129849  .00000066  00000-0  51515-4 0  9998
2 28380  82.9627 204.7412 0040760 100.0022 260.5734 13.76000204540895
COSMOS 2414 [+]         
1 28521U 05002A   15120.78447218  .00000120  00000-0  87527-4 0  9991
2 28521  82.9486 237.1880 0041453  39.3202 321.0966 13.87540511520337
COSMOS 2429 [-]         
1 32052U 07038A   15120.74602280 -.00000010  00000-0 -26738-4 0  9991
2 32052  82.9793 321.2139 0039712  66.7268 293.8059 13.74846310383085
COSMOS 2454 [-]         
1 35635U 09039A   15120.74251726  .00000120  00000-0  85101-4 0  9998
2 35635  82.9564 228.4254 0019850  13.0885 347.0786 13.89566258292947
COSMOS 2463 [+]         
1 36519U 10017A   15120.75959202  .00000100  00000-0  94682-4 0  9995
2 36519  82.9620 355.8324 0034772 247.4427 112.3036 13.71377368250779
